ONEWEB-0113             
1 48050U 21025J   25242.12591742  .00000198  00000+0  50222-3 0  9994
2 48050  87.9011  17.9985 0001866  93.5795 266.5548 13.13977644215383
ONEWEB-0112             
1 48051U 21025K   25242.11128914 -.00000108  00000+0 -33047-3 0  9990
2 48051  87.9014  18.0157 0001837 100.2183 259.9153 13.13471830215389
ONEWEB-0156             
1 48052U 21025L   25242.11974843  .00000015  00000+0  65732-5 0  9994
2 48052  87.9013  18.0262 0001775 102.6588 257.4740 13.13469996215365
ONEWEB-0161             
1 48053U 21025M   25242.09434996 -.00000231  00000+0 -66685-3 0  9990
2 48053  87.9016  18.0503 0001718 102.9655 257.1667 13.13469662215299
ONEWEB-0158             
1 48054U 21025N   25242.12993178  .00000692  00000+0  18596-2 0  9993
2 48054  87.9015  18.0226 0001742  87.4449 272.6880 13.13468070215422
ONEWEB-0157             
1 48055U 21025P   25242.07911966  .00000066  00000+0  14447-3 0  9990
2 48055  87.9012  18.0416 0001600 111.7638 248.3661 13.13469044215356
ONEWEB-0162             
1 48056U 21025Q   25242.13146663  .00000326  00000+0  85708-3 0  9999
2 48056  87.9016  18.0303 0001755  99.6553 260.4774 13.13469270215336
ONEWEB-0155             
1 48057U 21025R   25242.13837311  .00000416  00000+0  11031-2 0  9994
2 48057  87.9014  18.0363 0001517  99.5443 260.5858 13.13469933215479
ONEWEB-0149             
1 48058U 21025S   25242.08420417 -.00000069  00000+0 -22376-3 0  9995
2 48058  87.9013  18.0416 0001928 100.0795 260.0552 13.13469197215278
ONEWEB-0148             
1 48059U 21025T   25242.12314032  .00000165  00000+0  41659-3 0  9996
2 48059  87.9011  18.0583 0002232 110.9679 249.1689 13.13470726215406
ONEWEB-0160             
1 48060U 21025U   25241.91153742  .00000261  00000+0  68083-3 0  9990
2 48060  87.9014  18.0977 0002106  75.8609 284.2754 13.13469720215326
ONEWEB-0163             
1 48061U 21025V   25242.12482990  .00000970  00000+0  26223-2 0  9991
2 48061  87.9011  18.0356 0001612 104.7699 255.3609 13.13466905215473
ONEWEB-0159             
1 48062U 21025W   25242.11635927  .00000006  00000+0 -19284-4 0  9993
2 48062  87.9014  18.0194 0001754 105.9917 254.1406 13.13470436215397
ONEWEB-0164             
1 48063U 21025X   25242.09773120 -.00000252  00000+0 -72368-3 0  9994
2 48063  87.9011  18.0321 0001729  95.7609 264.3717 13.13469755215371
ONEWEB-0167             
1 48064U 21025Y   25242.12566474  .00000245  00000+0  63510-3 0  9990
2 48064  87.9013  18.0613 0000953 107.8815 252.2418 13.13471974215369
ONEWEB-0166             
1 48065U 21025Z   25242.07234659  .00000318  00000+0  83618-3 0  9994
2 48065  87.9009  18.0215 0001830 101.7619 258.3715 13.13468775215433
ONEWEB-0151             
1 48066U 21025AA  25242.07404833  .00000295  00000+0  77374-3 0  9994
2 48066  87.9016  18.0458 0001584  96.0163 264.1147 13.13469975215377
