[{"OBJECT_NAME":"ONEWEB-0113","OBJECT_ID":"2021-025J","EPOCH":"2025-08-30T03:01:19.265088","MEAN_MOTION":13.13977644,"ECCENTRICITY":0.00018661,"INCLINATION":87.9011,"RA_OF_ASC_NODE":17.9985,"ARG_OF_PERICENTER":93.5795,"MEAN_ANOMALY":266.5548,"EPHEMERIS_TYPE":0,"CLASSIFICATION_TYPE":"U","NORAD_CAT_ID":48050,"ELEMENT_SET_NO":999,"REV_AT_EPOCH":21538,"BSTAR":0.00050222413,"MEAN_MOTION_DOT":1.98e-6,"MEAN_MOTION_DDOT":0},{"OBJECT_NAME":"ONEWEB-0112","OBJECT_ID":"2021-025K","EPOCH":"2025-08-30T02:40:15.381696","MEAN_MOTION":13.1347183,"ECCENTRICITY":0.00018375,"INCLINATION":87.9014,"RA_OF_ASC_NODE":18.0157,"ARG_OF_PERICENTER":100.2183,"MEAN_ANOMALY":259.9153,"EPHEMERIS_TYPE":0,"CLASSIFICATION_TYPE":"U","NORAD_CAT_ID":48051,"ELEMENT_SET_NO":999,"REV_AT_EPOCH":21538,"BSTAR":-0.00033046977,"MEAN_MOTION_DOT":-1.08e-6,"MEAN_MOTION_DDOT":0},{"OBJECT_NAME":"ONEWEB-0156","OBJECT_ID":"2021-025L","EPOCH":"2025-08-30T02:52:26.264352","MEAN_MOTION":13.13469996,"ECCENTRICITY":0.00017751,"INCLINATION":87.9013,"RA_OF_ASC_NODE":18.0262,"ARG_OF_PERICENTER":102.6588,"MEAN_ANOMALY":257.474,"EPHEMERIS_TYPE":0,"CLASSIFICATION_TYPE":"U","NORAD_CAT_ID":48052,"ELEMENT_SET_NO":999,"REV_AT_EPOCH":21536,"BSTAR":6.573227e-6,"MEAN_MOTION_DOT":1.5e-7,"MEAN_MOTION_DDOT":0},{"OBJECT_NAME":"ONEWEB-0161","OBJECT_ID":"2021-025M","EPOCH":"2025-08-30T02:15:51.836544","MEAN_MOTION":13.13469662,"ECCENTRICITY":0.00017186,"INCLINATION":87.9016,"RA_OF_ASC_NODE":18.0503,"ARG_OF_PERICENTER":102.9655,"MEAN_ANOMALY":257.1667,"EPHEMERIS_TYPE":0,"CLASSIFICATION_TYPE":"U","NORAD_CAT_ID":48053,"ELEMENT_SET_NO":999,"REV_AT_EPOCH":21529,"BSTAR":-0.00066684904,"MEAN_MOTION_DOT":-2.31e-6,"MEAN_MOTION_DDOT":0},{"OBJECT_NAME":"ONEWEB-0158","OBJECT_ID":"2021-025N","EPOCH":"2025-08-30T03:07:06.105792","MEAN_MOTION":13.1346807,"ECCENTRICITY":0.00017423,"INCLINATION":87.9015,"RA_OF_ASC_NODE":18.0226,"ARG_OF_PERICENTER":87.4449,"MEAN_ANOMALY":272.688,"EPHEMERIS_TYPE":0,"CLASSIFICATION_TYPE":"U","NORAD_CAT_ID":48054,"ELEMENT_SET_NO":999,"REV_AT_EPOCH":21542,"BSTAR":0.001859553,"MEAN_MOTION_DOT":6.92e-6,"MEAN_MOTION_DDOT":0},{"OBJECT_NAME":"ONEWEB-0157","OBJECT_ID":"2021-025P","EPOCH":"2025-08-30T01:53:55.938624","MEAN_MOTION":13.13469044,"ECCENTRICITY":0.00016003,"INCLINATION":87.9012,"RA_OF_ASC_NODE":18.0416,"ARG_OF_PERICENTER":111.7638,"MEAN_ANOMALY":248.3661,"EPHEMERIS_TYPE":0,"CLASSIFICATION_TYPE":"U","NORAD_CAT_ID":48055,"ELEMENT_SET_NO":999,"REV_AT_EPOCH":21535,"BSTAR":0.00014447316,"MEAN_MOTION_DOT":6.6e-7,"MEAN_MOTION_DDOT":0},{"OBJECT_NAME":"ONEWEB-0162","OBJECT_ID":"2021-025Q","EPOCH":"2025-08-30T03:09:18.716832","MEAN_MOTION":13.1346927,"ECCENTRICITY":0.00017556,"INCLINATION":87.9016,"RA_OF_ASC_NODE":18.0303,"ARG_OF_PERICENTER":99.6553,"MEAN_ANOMALY":260.4774,"EPHEMERIS_TYPE":0,"CLASSIFICATION_TYPE":"U","NORAD_CAT_ID":48056,"ELEMENT_SET_NO":999,"REV_AT_EPOCH":21533,"BSTAR":0.00085707732,"MEAN_MOTION_DOT":3.26e-6,"MEAN_MOTION_DDOT":0},{"OBJECT_NAME":"ONEWEB-0155","OBJECT_ID":"2021-025R","EPOCH":"2025-08-30T03:19:15.436704","MEAN_MOTION":13.13469933,"ECCENTRICITY":0.00015173,"INCLINATION":87.9014,"RA_OF_ASC_NODE":18.0363,"ARG_OF_PERICENTER":99.5443,"MEAN_ANOMALY":260.5858,"EPHEMERIS_TYPE":0,"CLASSIFICATION_TYPE":"U","NORAD_CAT_ID":48057,"ELEMENT_SET_NO":999,"REV_AT_EPOCH":21547,"BSTAR":0.001103059,"MEAN_MOTION_DOT":4.16e-6,"MEAN_MOTION_DDOT":0},{"OBJECT_NAME":"ONEWEB-0149","OBJECT_ID":"2021-025S","EPOCH":"2025-08-30T02:01:15.240288","MEAN_MOTION":13.13469197,"ECCENTRICITY":0.00019287,"INCLINATION":87.9013,"RA_OF_ASC_NODE":18.0416,"ARG_OF_PERICENTER":100.0795,"MEAN_ANOMALY":260.0552,"EPHEMERIS_TYPE":0,"CLASSIFICATION_TYPE":"U","NORAD_CAT_ID":48058,"ELEMENT_SET_NO":999,"REV_AT_EPOCH":21527,"BSTAR":-0.00022375655,"MEAN_MOTION_DOT":-6.9e-7,"MEAN_MOTION_DDOT":0},{"OBJECT_NAME":"ONEWEB-0148","OBJECT_ID":"2021-025T","EPOCH":"2025-08-30T02:57:19.323648","MEAN_MOTION":13.13470726,"ECCENTRICITY":0.00022323,"INCLINATION":87.9011,"RA_OF_ASC_NODE":18.0583,"ARG_OF_PERICENTER":110.9679,"MEAN_ANOMALY":249.1689,"EPHEMERIS_TYPE":0,"CLASSIFICATION_TYPE":"U","NORAD_CAT_ID":48059,"ELEMENT_SET_NO":999,"REV_AT_EPOCH":21540,"BSTAR":0.00041659244,"MEAN_MOTION_DOT":1.65e-6,"MEAN_MOTION_DDOT":0},{"OBJECT_NAME":"ONEWEB-0160","OBJECT_ID":"2021-025U","EPOCH":"2025-08-29T21:52:36.833088","MEAN_MOTION":13.1346972,"ECCENTRICITY":0.00021061,"INCLINATION":87.9014,"RA_OF_ASC_NODE":18.0977,"ARG_OF_PERICENTER":75.8609,"MEAN_ANOMALY":284.2754,"EPHEMERIS_TYPE":0,"CLASSIFICATION_TYPE":"U","NORAD_CAT_ID":48060,"ELEMENT_SET_NO":999,"REV_AT_EPOCH":21532,"BSTAR":0.00068083389,"MEAN_MOTION_DOT":2.61e-6,"MEAN_MOTION_DDOT":0},{"OBJECT_NAME":"ONEWEB-0163","OBJECT_ID":"2021-025V","EPOCH":"2025-08-30T02:59:45.303360","MEAN_MOTION":13.13466905,"ECCENTRICITY":0.00016121,"INCLINATION":87.9011,"RA_OF_ASC_NODE":18.0356,"ARG_OF_PERICENTER":104.7699,"MEAN_ANOMALY":255.3609,"EPHEMERIS_TYPE":0,"CLASSIFICATION_TYPE":"U","NORAD_CAT_ID":48061,"ELEMENT_SET_NO":999,"REV_AT_EPOCH":21547,"BSTAR":0.002622303,"MEAN_MOTION_DOT":9.7e-6,"MEAN_MOTION_DDOT":0},{"OBJECT_NAME":"ONEWEB-0159","OBJECT_ID":"2021-025W","EPOCH":"2025-08-30T02:47:33.440928","MEAN_MOTION":13.13470436,"ECCENTRICITY":0.00017541,"INCLINATION":87.9014,"RA_OF_ASC_NODE":18.0194,"ARG_OF_PERICENTER":105.9917,"MEAN_ANOMALY":254.1406,"EPHEMERIS_TYPE":0,"CLASSIFICATION_TYPE":"U","NORAD_CAT_ID":48062,"ELEMENT_SET_NO":999,"REV_AT_EPOCH":21539,"BSTAR":-1.9283839e-5,"MEAN_MOTION_DOT":6.0e-8,"MEAN_MOTION_DDOT":0},{"OBJECT_NAME":"ONEWEB-0164","OBJECT_ID":"2021-025X","EPOCH":"2025-08-30T02:20:43.975680","MEAN_MOTION":13.13469755,"ECCENTRICITY":0.00017298,"INCLINATION":87.9011,"RA_OF_ASC_NODE":18.0321,"ARG_OF_PERICENTER":95.7609,"MEAN_ANOMALY":264.3717,"EPHEMERIS_TYPE":0,"CLASSIFICATION_TYPE":"U","NORAD_CAT_ID":48063,"ELEMENT_SET_NO":999,"REV_AT_EPOCH":21537,"BSTAR":-0.00072367735,"MEAN_MOTION_DOT":-2.52e-6,"MEAN_MOTION_DDOT":0},{"OBJECT_NAME":"ONEWEB-0167","OBJECT_ID":"2021-025Y","EPOCH":"2025-08-30T03:00:57.433536","MEAN_MOTION":13.13471974,"ECCENTRICITY":9.534e-5,"INCLINATION":87.9013,"RA_OF_ASC_NODE":18.0613,"ARG_OF_PERICENTER":107.8815,"MEAN_ANOMALY":252.2418,"EPHEMERIS_TYPE":0,"CLASSIFICATION_TYPE":"U","NORAD_CAT_ID":48064,"ELEMENT_SET_NO":999,"REV_AT_EPOCH":21536,"BSTAR":0.00063509953,"MEAN_MOTION_DOT":2.45e-6,"MEAN_MOTION_DDOT":0},{"OBJECT_NAME":"ONEWEB-0166","OBJECT_ID":"2021-025Z","EPOCH":"2025-08-30T01:44:10.745376","MEAN_MOTION":13.13468775,"ECCENTRICITY":0.00018303,"INCLINATION":87.9009,"RA_OF_ASC_NODE":18.0215,"ARG_OF_PERICENTER":101.7619,"MEAN_ANOMALY":258.3715,"EPHEMERIS_TYPE":0,"CLASSIFICATION_TYPE":"U","NORAD_CAT_ID":48065,"ELEMENT_SET_NO":999,"REV_AT_EPOCH":21543,"BSTAR":0.00083617571,"MEAN_MOTION_DOT":3.18e-6,"MEAN_MOTION_DDOT":0},{"OBJECT_NAME":"ONEWEB-0151","OBJECT_ID":"2021-025AA","EPOCH":"2025-08-30T01:46:37.775712","MEAN_MOTION":13.13469975,"ECCENTRICITY":0.00015846,"INCLINATION":87.9016,"RA_OF_ASC_NODE":18.0458,"ARG_OF_PERICENTER":96.0163,"MEAN_ANOMALY":264.1147,"EPHEMERIS_TYPE":0,"CLASSIFICATION_TYPE":"U","NORAD_CAT_ID":48066,"ELEMENT_SET_NO":999,"REV_AT_EPOCH":21537,"BSTAR":0.00077374394,"MEAN_MOTION_DOT":2.95e-6,"MEAN_MOTION_DDOT":0}]
